PERSEUS-M1              
1 40039U 14033AF  26155.05690024  .00002617  00000+0  24106-3 0  9993
2 40039  97.9641  98.9742 0011068 349.8422  10.2573 14.95587199648678
POLYITAN-1              
1 40042U 14033AJ  26154.99786768  .00019995  00000+0  63302-3 0  9998
2 40042  98.0949 180.0160 0007537 180.7308 179.3922 15.32773760651574
TIGRISAT                
1 40043U 14033AK  26154.97768297  .00002692  00000+0  31399-3 0  9991
2 40043  97.7821 305.2937 0050618 117.3579 243.2801 14.85106187643665
AEROCUBE 6A             
1 40045U 14033AM  26154.93166257  .00006356  00000+0  53535-3 0  9994
2 40045  97.7216 322.0234 0039359  61.3448 299.1723 14.97953444644634
AEROCUBE 6B             
1 40046U 14033AN  26155.08038610  .00007443  00000+0  60271-3 0  9996
2 40046  97.7216 321.9304 0039252  53.3146 307.1674 14.99411061644797
CANX-4                  
1 40055U 14034C   26155.45230034  .00001206  00000+0  16196-3 0  9990
2 40055  98.3135  30.2971 0013904  55.6030 304.6494 14.81240766642644
CANX-5                  
1 40056U 14034D   26155.45088093  .00001213  00000+0  16272-3 0  9990
2 40056  98.3138  30.3384 0013905  55.6451 304.6073 14.81257887633459
UKUBE-1                 
1 40074U 14037F   26154.54849194  .00010176  00000+0  57523-3 0  9991
2 40074  98.4235 156.3901 0001646 150.7111 209.4210 15.13321645646494
BRITE-PL2 (HEWELIUSZ)   
1 40119U 14049B   26155.25097445  .00002888  00000+0  27217-3 0  9995
2 40119  97.9085 267.1526 0014906 148.0147 212.1981 14.94543231639513
AEROCUBE 5C             
1 40965U 15058B   26155.76580024  .00003380  00000+0  30188-3 0  9990
2 40965  64.7686 301.2303 0130294  68.1429 293.3481 14.91390657363809
AEROCUBE 7              
1 40966U 15058C   26155.79752550  .00004609  00000+0  37159-3 0  9999
2 40966  64.7635 283.6208 0120049  66.6215 294.7472 14.95640365364101
FOX-1A (AO-85)          
1 40967U 15058D   26155.74227487  .00003435  00000+0  31079-3 0  9992
2 40967  64.7765 317.6571 0129791  61.4779 299.9329 14.90903790111712
SINOD-D 1               
1 40968U 15058E   26155.64324600  .00004714  00000+0  37940-3 0  9991
2 40968  64.7765 298.1925 0118357  58.1097 303.1468 14.95818251114785
SNAP-3 ALICE            
1 40970U 15058G   26155.46946917  .00108621  00000+0  14381-2 0  9990
2 40970  64.7500 147.7953 0031763  19.0164 341.2159 15.57122886114906
LMRST-SAT               
1 40971U 15058H   26155.69442148  .00003445  00000+0  31343-3 0  9999
2 40971  64.7770 314.1193 0131494  63.5191 297.9338 14.90528004111695
SNAP-3 EDDIE            
1 40972U 15058J   26155.34101653  .00122676  00000+0  15514-2 0  9994
2 40972  64.7423 139.0554 0031538  23.2202 337.0360 15.58293147117026
PROPCUBE 3              
1 40973U 15058K   26154.55586732  .00003931  00000+0  32911-3 0  9995
2 40973  64.7695 295.1216 0123462  65.3437 296.0475 14.94172395112769
BISONSAT                
1 40974U 15058L   26155.56584800  .00010620  00000+0  51960-3 0  9990
2 40974  64.7585 214.4412 0078245  52.4389 308.3809 15.15926307113708
SNAP-3 JIMI             
1 40975U 15058M   26155.67380792  .00005868  00000+0  40603-3 0  9997
2 40975  64.7657 259.3605 0105625  60.4945 300.6656 15.02182343112345
PROPCUBE 1 (FLORA)      
1 40976U 15058N   26154.63051971  .00003319  00000+0  31462-3 0  9999
2 40976  64.7756 337.2500 0130197  66.2388 295.2315 14.89150106114241
SINOD-D 3               
1 40977U 15058P   26155.72331444  .00004620  00000+0  39088-3 0  9995
2 40977  64.7738 314.7372 0118762  63.0990 298.2201 14.93930163112897
HORYU-4                 
1 41340U 16012D   26152.43486084  .00260233  00000+0  10081-2 0  9992
2 41340  30.9850 193.7734 0002292 171.6706 188.3991 15.85409012568302
RAVAN                   
1 41849U 16067B   26155.87430111  .00051824  00000+0  81447-3 0  9996
2 41849  97.9898  44.0349 0006169  65.1073 295.0820 15.53458497525780
CELTEE 1                
1 41850U 16067C   26154.57667700  .00006337  00000+0  30174-3 0  9990
2 41850  98.0684  20.2158 0000637  73.6065 286.5238 15.19540482523818
OPTICUBE 04             
1 41851U 16067D   26154.55750612  .00002250  00000+0  14407-3 0  9995
2 41851  98.0706   6.1301 0016119 158.9050 201.2846 15.09597028523119
AEROCUBE 8D             
1 41852U 16067E   26155.15786901  .00008564  00000+0  35457-3 0  9995
2 41852  98.0693  24.3388 0003856 157.4456 202.6950 15.24207534524085
AEROCUBE 8C             
1 41853U 16067F   26155.11933043  .00008936  00000+0  36699-3 0  9995
2 41853  98.0566  21.5419 0006760 103.7079 256.4909 15.24450194524073
CORVUS BC2              
1 42846U 17042X   26154.97491227  .00003714  00000+0  25689-3 0  9994
2 42846  97.4065 316.8404 0013960 150.8066 209.3945 15.06210425485070
CORVUS BC1              
1 42847U 17042Y   26155.23671757  .00003822  00000+0  26310-3 0  9995
2 42847  97.4094 317.8976 0013376 128.2969 231.9464 15.06382475485140
MAKERSAT 0              
1 43016U 17073D   26155.18094470  .00023305  00000+0  63992-3 0  9998
2 43016  97.4650  37.6017 0106721 320.0172  39.3245 15.31596076464477
