OBJECT_NAME,OBJECT_ID,EPOCH,MEAN_MOTION,ECCENTRICITY,INCLINATION,RA_OF_ASC_NODE,ARG_OF_PERICENTER,MEAN_ANOMALY,EPHEMERIS_TYPE,CLASSIFICATION_TYPE,NORAD_CAT_ID,ELEMENT_SET_NO,REV_AT_EPOCH,BSTAR,MEAN_MOTION_DOT,MEAN_MOTION_DDOT
PERSEUS-M1,2014-033AF,2026-06-04T01:21:56.180736,14.95587199,.00110683,97.9641,98.9742,349.8422,10.2573,0,U,40039,999,64867,.24106212E-3,.2617E-4,0
POLYITAN-1,2014-033AJ,2026-06-03T23:56:55.767552,15.32773760,.00075376,98.0949,180.0160,180.7308,179.3922,0,U,40042,999,65157,.63302459E-3,.19995E-3,0
TIGRISAT,2014-033AK,2026-06-03T23:27:51.808608,14.85106187,.0050618,97.7821,305.2937,117.3579,243.2801,0,U,40043,999,64366,.31399118E-3,.2692E-4,0
AEROCUBE 6A,2014-033AM,2026-06-03T22:21:35.646048,14.97953444,.0039359,97.7216,322.0234,61.3448,299.1723,0,U,40045,999,64463,.53535E-3,.6356E-4,0
AEROCUBE 6B,2014-033AN,2026-06-04T01:55:45.359040,14.99411061,.00392524,97.7216,321.9304,53.3146,307.1674,0,U,40046,999,64479,.6027128E-3,.7443E-4,0
CANX-4,2014-034C,2026-06-04T10:51:18.749376,14.81240766,.00139048,98.3135,30.2971,55.6030,304.6494,0,U,40055,999,64264,.16195794E-3,.1206E-4,0
CANX-5,2014-034D,2026-06-04T10:49:16.112352,14.81257887,.00139058,98.3138,30.3384,55.6451,304.6073,0,U,40056,999,63345,.16272442E-3,.1213E-4,0
UKUBE-1,2014-037F,2026-06-03T13:09:49.703616,15.13321645,.00016466,98.4235,156.3901,150.7111,209.4210,0,U,40074,999,64649,.57522925E-3,.10176E-3,0
BRITE-PL2 (HEWELIUSZ),2014-049B,2026-06-04T06:01:24.192480,14.94543231,.00149068,97.9085,267.1526,148.0147,212.1981,0,U,40119,999,63951,.27217109E-3,.2888E-4,0
AEROCUBE 5C,2015-058B,2026-06-04T18:22:45.140736,14.91390657,.01302943,64.7686,301.2303,68.1429,293.3481,0,U,40965,999,36380,.30187884E-3,.338E-4,0
AEROCUBE 7,2015-058C,2026-06-04T19:08:26.203200,14.95640365,.0120049,64.7635,283.6208,66.6215,294.7472,0,U,40966,999,36410,.37159104E-3,.4609E-4,0
FOX-1A (AO-85),2015-058D,2026-06-04T17:48:52.548768,14.90903790,.01297919,64.7765,317.6571,61.4779,299.9329,0,U,40967,999,11171,.3107946E-3,.3435E-4,0
SINOD-D 1,2015-058E,2026-06-04T15:26:16.454400,14.95818251,.01183576,64.7765,298.1925,58.1097,303.1468,0,U,40968,999,11478,.379402E-3,.4714E-4,0
SNAP-3 ALICE,2015-058G,2026-06-04T11:16:02.136288,15.57122886,.00317632,64.7500,147.7953,19.0164,341.2159,0,U,40970,999,11490,.14380573E-2,.108621E-2,0
LMRST-SAT,2015-058H,2026-06-04T16:39:58.015872,14.90528004,.01314947,64.7770,314.1193,63.5191,297.9338,0,U,40971,999,11169,.31342509E-3,.3445E-4,0
SNAP-3 EDDIE,2015-058J,2026-06-04T08:11:03.828192,15.58293147,.00315388,64.7423,139.0554,23.2202,337.0360,0,U,40972,999,11702,.15514182E-2,.122676E-2,0
PROPCUBE 3,2015-058K,2026-06-03T13:20:26.936448,14.94172395,.01234622,64.7695,295.1216,65.3437,296.0475,0,U,40973,999,11276,.32910668E-3,.3931E-4,0
BISONSAT,2015-058L,2026-06-04T13:34:49.267200,15.15926307,.00782458,64.7585,214.4412,52.4389,308.3809,0,U,40974,999,11370,.51960237E-3,.1062E-3,0
SNAP-3 JIMI,2015-058M,2026-06-04T16:10:17.004288,15.02182343,.01056254,64.7657,259.3605,60.4945,300.6656,0,U,40975,999,11234,.4060272E-3,.5868E-4,0
PROPCUBE 1 (FLORA),2015-058N,2026-06-03T15:07:56.902944,14.89150106,.0130197,64.7756,337.2500,66.2388,295.2315,0,U,40976,999,11424,.31462E-3,.3319E-4,0
SINOD-D 3,2015-058P,2026-06-04T17:21:34.367616,14.93930163,.01187629,64.7738,314.7372,63.0990,298.2201,0,U,40977,999,11289,.39088105E-3,.462E-4,0
HORYU-4,2016-012D,2026-06-01T10:26:11.976576,15.85409012,.00022929,30.9850,193.7734,171.6706,188.3991,0,U,41340,999,56830,.10080768E-2,.260233E-2,0
RAVAN,2016-067B,2026-06-04T20:58:59.615904,15.53458497,.00061692,97.9898,44.0349,65.1073,295.0820,0,U,41849,999,52578,.81446702E-3,.51824E-3,0
CELTEE 1,2016-067C,2026-06-03T13:50:24.892800,15.19540482,.00006371,98.0684,20.2158,73.6065,286.5238,0,U,41850,999,52381,.30174042E-3,.6337E-4,0
OPTICUBE 04,2016-067D,2026-06-03T13:22:48.528768,15.09597028,.00161191,98.0706,6.1301,158.9050,201.2846,0,U,41851,999,52311,.14406702E-3,.225E-4,0
AEROCUBE 8D,2016-067E,2026-06-04T03:47:19.882464,15.24207534,.00038566,98.0693,24.3388,157.4456,202.6950,0,U,41852,999,52408,.35456574E-3,.8564E-4,0
AEROCUBE 8C,2016-067F,2026-06-04T02:51:50.149152,15.24450194,.000676,98.0566,21.5419,103.7079,256.4909,0,U,41853,999,52407,.36698624E-3,.8936E-4,0
CORVUS BC2,2017-042X,2026-06-03T23:23:52.420128,15.06210425,.00139605,97.4065,316.8404,150.8066,209.3945,0,U,42846,999,48507,.25689454E-3,.3714E-4,0
CORVUS BC1,2017-042Y,2026-06-04T05:40:52.398048,15.06382475,.0013376,97.4094,317.8976,128.2969,231.9464,0,U,42847,999,48514,.2631E-3,.3822E-4,0
MAKERSAT 0,2017-073D,2026-06-04T04:20:33.622080,15.31596076,.0106721,97.4650,37.6017,320.0172,39.3245,0,U,43016,999,46447,.63992E-3,.23305E-3,0
